[{"OBJECT_NAME":"STARLINK-34592","OBJECT_ID":"2025-144Y","EPOCH":"2026-03-09T12:37:00.459264","MEAN_MOTION":15.30213038,"ECCENTRICITY":0.00014384,"INCLINATION":53.1605,"RA_OF_ASC_NODE":169.2442,"ARG_OF_PERICENTER":152.0048,"MEAN_ANOMALY":208.103,"EPHEMERIS_TYPE":0,"CLASSIFICATION_TYPE":"U","NORAD_CAT_ID":64746,"ELEMENT_SET_NO":999,"REV_AT_EPOCH":3986,"BSTAR":0.00083033596,"MEAN_MOTION_DOT":0.00024323,"MEAN_MOTION_DDOT":0},{"OBJECT_NAME":"PEGASUS DEB","OBJECT_ID":"1994-029AES","EPOCH":"2026-03-06T17:32:52.876320","MEAN_MOTION":15.2736598,"ECCENTRICITY":0.00781089,"INCLINATION":81.9406,"RA_OF_ASC_NODE":336.1125,"ARG_OF_PERICENTER":102.4632,"MEAN_ANOMALY":258.5359,"EPHEMERIS_TYPE":0,"CLASSIFICATION_TYPE":"U","NORAD_CAT_ID":39307,"ELEMENT_SET_NO":999,"REV_AT_EPOCH":76792,"BSTAR":0.0021826707,"MEAN_MOTION_DOT":0.00064449,"MEAN_MOTION_DDOT":0}]
